[
  {
    "CCSDS_OMM_VERS": "3.0",
    "COMMENT": "GENERATED VIA SPACE-TRACK.ORG API",
    "CREATION_DATE": "2026-02-19T17:59:09",
    "ORIGINATOR": "18 SPCS",
    "OBJECT_NAME": "FENGYUN 1C DEB",
    "OBJECT_ID": "1999-025ARE",
    "CENTER_NAME": "EARTH",
    "REF_FRAME": "TEME",
    "TIME_SYSTEM": "UTC",
    "MEAN_ELEMENT_THEORY": "SGP4",
    "EPOCH": "2026-02-19T15:30:54.668448",
    "MEAN_MOTION": "14.45214064",
    "ECCENTRICITY": "0.00870325",
    "INCLINATION": "98.3795",
    "RA_OF_ASC_NODE": "103.7844",
    "ARG_OF_PERICENTER": "276.6248",
    "MEAN_ANOMALY": "248.6128",
    "EPHEMERIS_TYPE": "0",
    "CLASSIFICATION_TYPE": "U",
    "NORAD_CAT_ID": "30696",
    "ELEMENT_SET_NO": "999",
    "REV_AT_EPOCH": "99299",
    "BSTAR": "0.00061510666000",
    "MEAN_MOTION_DOT": "0.00002211",
    "MEAN_MOTION_DDOT": "0.0000000000000",
    "SEMIMAJOR_AXIS": "7119.460",
    "PERIOD": "99.639",
    "APOAPSIS": "803.287",
    "PERIAPSIS": "679.363",
    "OBJECT_TYPE": "DEBRIS",
    "RCS_SIZE": "SMALL",
    "COUNTRY_CODE": "PRC",
    "LAUNCH_DATE": "1999-05-10",
    "SITE": "TSC",
    "DECAY_DATE": null,
    "FILE": "5039972",
    "GP_ID": "313164524",
    "TLE_LINE0": "0 FENGYUN 1C DEB",
    "TLE_LINE1": "1 30696U 99025ARE 26050.64646607  .00002211  00000-0  61511-3 0  9994",
    "TLE_LINE2": "2 30696  98.3795 103.7844 0087032 276.6248 248.6128 14.45214064992999"
  },
  {
    "CCSDS_OMM_VERS": "3.0",
    "COMMENT": "GENERATED VIA SPACE-TRACK.ORG API",
    "CREATION_DATE": "2026-02-19T17:59:09",
    "ORIGINATOR": "18 SPCS",
    "OBJECT_NAME": "COSMOS 2251 DEB",
    "OBJECT_ID": "1993-036HJ",
    "CENTER_NAME": "EARTH",
    "REF_FRAME": "TEME",
    "TIME_SYSTEM": "UTC",
    "MEAN_ELEMENT_THEORY": "SGP4",
    "EPOCH": "2026-02-19T15:30:43.356096",
    "MEAN_MOTION": "14.40737810",
    "ECCENTRICITY": "0.00191012",
    "INCLINATION": "74.0245",
    "RA_OF_ASC_NODE": "124.2082",
    "ARG_OF_PERICENTER": "212.5380",
    "MEAN_ANOMALY": "309.4254",
    "EPHEMERIS_TYPE": "0",
    "CLASSIFICATION_TYPE": "U",
    "NORAD_CAT_ID": "34023",
    "ELEMENT_SET_NO": "999",
    "REV_AT_EPOCH": "89206",
    "BSTAR": "0.00025937717000",
    "MEAN_MOTION_DOT": "0.00000804",
    "MEAN_MOTION_DDOT": "0.0000000000000",
    "SEMIMAJOR_AXIS": "7134.199",
    "PERIOD": "99.949",
    "APOAPSIS": "769.691",
    "PERIAPSIS": "742.437",
    "OBJECT_TYPE": "DEBRIS",
    "RCS_SIZE": "SMALL",
    "COUNTRY_CODE": "CIS",
    "LAUNCH_DATE": "1993-06-16",
    "SITE": "PKMTR",
    "DECAY_DATE": null,
    "FILE": "5039972",
    "GP_ID": "313166747",
    "TLE_LINE0": "0 COSMOS 2251 DEB",
    "TLE_LINE1": "1 34023U 93036HJ  26050.64633514  .00000804  00000-0  25938-3 0  9990",
    "TLE_LINE2": "2 34023  74.0245 124.2082 0019101 212.5380 309.4254 14.40737810892065"
  },
  {
    "CCSDS_OMM_VERS": "3.0",
    "COMMENT": "GENERATED VIA SPACE-TRACK.ORG API",
    "CREATION_DATE": "2026-02-19T17:59:09",
    "ORIGINATOR": "18 SPCS",
    "OBJECT_NAME": "COSMOS 1579 FUEL CORE",
    "OBJECT_ID": "1984-069D",
    "CENTER_NAME": "EARTH",
    "REF_FRAME": "TEME",
    "TIME_SYSTEM": "UTC",
    "MEAN_ELEMENT_THEORY": "SGP4",
    "EPOCH": "2026-02-19T15:29:44.154816",
    "MEAN_MOTION": "13.89916816",
    "ECCENTRICITY": "0.00377284",
    "INCLINATION": "65.0551",
    "RA_OF_ASC_NODE": "134.5664",
    "ARG_OF_PERICENTER": "337.9601",
    "MEAN_ANOMALY": "94.8135",
    "EPHEMERIS_TYPE": "0",
    "CLASSIFICATION_TYPE": "U",
    "NORAD_CAT_ID": "15330",
    "ELEMENT_SET_NO": "999",
    "REV_AT_EPOCH": "11564",
    "BSTAR": "0.00002355148000",
    "MEAN_MOTION_DOT": "-0.00000061",
    "MEAN_MOTION_DDOT": "0.0000000000000",
    "SEMIMAJOR_AXIS": "7307.059",
    "PERIOD": "103.603",
    "APOAPSIS": "956.493",
    "PERIAPSIS": "901.356",
    "OBJECT_TYPE": "DEBRIS",
    "RCS_SIZE": "MEDIUM",
    "COUNTRY_CODE": "CIS",
    "LAUNCH_DATE": "1984-06-29",
    "SITE": "TTMTR",
    "DECAY_DATE": null,
    "FILE": "5039972",
    "GP_ID": "313158856",
    "TLE_LINE0": "0 COSMOS 1579 FUEL CORE",
    "TLE_LINE1": "1 15330U 84069D   26050.64564994 -.00000061  00000-0  23551-4 0  9997",
    "TLE_LINE2": "2 15330  65.0551 134.5664 0037728 337.9601  94.8135 13.89916816115640"
  },
  {
    "CCSDS_OMM_VERS": "3.0",
    "COMMENT": "GENERATED VIA SPACE-TRACK.ORG API",
    "CREATION_DATE": "2026-02-19T17:59:09",
    "ORIGINATOR": "18 SPCS",
    "OBJECT_NAME": "DELTA 1 DEB",
    "OBJECT_ID": "1976-077DZ",
    "CENTER_NAME": "EARTH",
    "REF_FRAME": "TEME",
    "TIME_SYSTEM": "UTC",
    "MEAN_ELEMENT_THEORY": "SGP4",
    "EPOCH": "2026-02-19T15:29:29.484960",
    "MEAN_MOTION": "11.70247870",
    "ECCENTRICITY": "0.03819107",
    "INCLINATION": "102.4743",
    "RA_OF_ASC_NODE": "298.6521",
    "ARG_OF_PERICENTER": "341.8072",
    "MEAN_ANOMALY": "42.4111",
    "EPHEMERIS_TYPE": "0",
    "CLASSIFICATION_TYPE": "U",
    "NORAD_CAT_ID": "12581",
    "ELEMENT_SET_NO": "999",
    "REV_AT_EPOCH": "5164",
    "BSTAR": "0.00038068725000",
    "MEAN_MOTION_DOT": "-0.00000013",
    "MEAN_MOTION_DDOT": "0.0000000000000",
    "SEMIMAJOR_AXIS": "8195.018",
    "PERIOD": "123.051",
    "APOAPSIS": "2129.860",
    "PERIAPSIS": "1503.907",
    "OBJECT_TYPE": "DEBRIS",
    "RCS_SIZE": "SMALL",
    "COUNTRY_CODE": "US",
    "LAUNCH_DATE": "1976-07-29",
    "SITE": "AFWTR",
    "DECAY_DATE": null,
    "FILE": "5039972",
    "GP_ID": "313157944",
    "TLE_LINE0": "0 DELTA 1 DEB",
    "TLE_LINE1": "1 12581U 76077DZ  26050.64548015 -.00000013  00000-0  38069-3 0  9994",
    "TLE_LINE2": "2 12581 102.4743 298.6521 0381911 341.8072  42.4111 11.70247870 51647"
  },
  {
    "CCSDS_OMM_VERS": "3.0",
    "COMMENT": "GENERATED VIA SPACE-TRACK.ORG API",
    "CREATION_DATE": "2026-02-19T17:59:09",
    "ORIGINATOR": "18 SPCS",
    "OBJECT_NAME": "SL-8 DEB",
    "OBJECT_ID": "1991-009Y",
    "CENTER_NAME": "EARTH",
    "REF_FRAME": "TEME",
    "TIME_SYSTEM": "UTC",
    "MEAN_ELEMENT_THEORY": "SGP4",
    "EPOCH": "2026-02-19T15:29:26.257920",
    "MEAN_MOTION": "12.19449843",
    "ECCENTRICITY": "0.01312461",
    "INCLINATION": "74.0735",
    "RA_OF_ASC_NODE": "24.8720",
    "ARG_OF_PERICENTER": "70.4705",
    "MEAN_ANOMALY": "41.9728",
    "EPHEMERIS_TYPE": "0",
    "CLASSIFICATION_TYPE": "U",
    "NORAD_CAT_ID": "21161",
    "ELEMENT_SET_NO": "999",
    "REV_AT_EPOCH": "55635",
    "BSTAR": "-0.00007573252500",
    "MEAN_MOTION_DOT": "-0.00000022",
    "MEAN_MOTION_DDOT": "0.0000000000000",
    "SEMIMAJOR_AXIS": "7973.076",
    "PERIOD": "118.086",
    "APOAPSIS": "1699.584",
    "PERIAPSIS": "1490.297",
    "OBJECT_TYPE": "DEBRIS",
    "RCS_SIZE": "MEDIUM",
    "COUNTRY_CODE": "CIS",
    "LAUNCH_DATE": "1991-02-12",
    "SITE": "PKMTR",
    "DECAY_DATE": null,
    "FILE": "5039972",
    "GP_ID": "313160075",
    "TLE_LINE0": "0 SL-8 DEB",
    "TLE_LINE1": "1 21161U 91009Y   26050.64544280 -.00000022  00000-0 -75733-4 0  9991",
    "TLE_LINE2": "2 21161  74.0735  24.8720 0131246  70.4705  41.9728 12.19449843556352"
  },
  {
    "CCSDS_OMM_VERS": "3.0",
    "COMMENT": "GENERATED VIA SPACE-TRACK.ORG API",
    "CREATION_DATE": "2026-02-19T17:59:09",
    "ORIGINATOR": "18 SPCS",
    "OBJECT_NAME": "SL-16 DEB",
    "OBJECT_ID": "1993-016AA",
    "CENTER_NAME": "EARTH",
    "REF_FRAME": "TEME",
    "TIME_SYSTEM": "UTC",
    "MEAN_ELEMENT_THEORY": "SGP4",
    "EPOCH": "2026-02-19T15:28:55.281792",
    "MEAN_MOTION": "13.73997412",
    "ECCENTRICITY": "0.01875112",
    "INCLINATION": "70.9957",
    "RA_OF_ASC_NODE": "128.9127",
    "ARG_OF_PERICENTER": "343.8907",
    "MEAN_ANOMALY": "86.8871",
    "EPHEMERIS_TYPE": "0",
    "CLASSIFICATION_TYPE": "U",
    "NORAD_CAT_ID": "22616",
    "ELEMENT_SET_NO": "999",
    "REV_AT_EPOCH": "64894",
    "BSTAR": "0.00012585893000",
    "MEAN_MOTION_DOT": "0.00000091",
    "MEAN_MOTION_DDOT": "0.0000000000000",
    "SEMIMAJOR_AXIS": "7363.392",
    "PERIOD": "104.804",
    "APOAPSIS": "1123.328",
    "PERIAPSIS": "847.185",
    "OBJECT_TYPE": "DEBRIS",
    "RCS_SIZE": "SMALL",
    "COUNTRY_CODE": "CIS",
    "LAUNCH_DATE": "1993-03-26",
    "SITE": "TTMTR",
    "DECAY_DATE": null,
    "FILE": "5039972",
    "GP_ID": "313161395",
    "TLE_LINE0": "0 SL-16 DEB",
    "TLE_LINE1": "1 22616U 93016AA  26050.64508428  .00000091  00000-0  12586-3 0  9991",
    "TLE_LINE2": "2 22616  70.9957 128.9127 0187511 343.8907  86.8871 13.73997412648948"
  },
  {
    "CCSDS_OMM_VERS": "3.0",
    "COMMENT": "GENERATED VIA SPACE-TRACK.ORG API",
    "CREATION_DATE": "2026-02-19T17:59:09",
    "ORIGINATOR": "18 SPCS",
    "OBJECT_NAME": "COSMOS 970 DEB",
    "OBJECT_ID": "1977-121AN",
    "CENTER_NAME": "EARTH",
    "REF_FRAME": "TEME",
    "TIME_SYSTEM": "UTC",
    "MEAN_ELEMENT_THEORY": "SGP4",
    "EPOCH": "2026-02-19T15:28:41.267712",
    "MEAN_MOTION": "13.63455749",
    "ECCENTRICITY": "0.01246413",
    "INCLINATION": "65.8046",
    "RA_OF_ASC_NODE": "293.5729",
    "ARG_OF_PERICENTER": "20.5437",
    "MEAN_ANOMALY": "6.9781",
    "EPHEMERIS_TYPE": "0",
    "CLASSIFICATION_TYPE": "U",
    "NORAD_CAT_ID": "12860",
    "ELEMENT_SET_NO": "999",
    "REV_AT_EPOCH": "29539",
    "BSTAR": "0.00023974021000",
    "MEAN_MOTION_DOT": "0.00000121",
    "MEAN_MOTION_DDOT": "0.0000000000000",
    "SEMIMAJOR_AXIS": "7401.297",
    "PERIOD": "105.614",
    "APOAPSIS": "1115.412",
    "PERIAPSIS": "930.911",
    "OBJECT_TYPE": "DEBRIS",
    "RCS_SIZE": "SMALL",
    "COUNTRY_CODE": "CIS",
    "LAUNCH_DATE": "1977-12-21",
    "SITE": "TTMTR",
    "DECAY_DATE": null,
    "FILE": "5039972",
    "GP_ID": "313158017",
    "TLE_LINE0": "0 COSMOS 970 DEB",
    "TLE_LINE1": "1 12860U 77121AN  26050.64492208  .00000121  00000-0  23974-3 0  9995",
    "TLE_LINE2": "2 12860  65.8046 293.5729 0124641  20.5437   6.9781 13.63455749295390"
  }
]